[{"OBJECT_NAME":"ONEWEB-0369","OBJECT_ID":"2021-090S","EPOCH":"2026-03-09T17:02:52.729728","MEAN_MOTION":13.19725428,"ECCENTRICITY":0.00016421,"INCLINATION":87.9229,"RA_OF_ASC_NODE":324.7972,"ARG_OF_PERICENTER":82.7841,"MEAN_ANOMALY":277.3479,"EPHEMERIS_TYPE":0,"CLASSIFICATION_TYPE":"U","NORAD_CAT_ID":49295,"ELEMENT_SET_NO":999,"REV_AT_EPOCH":21329,"BSTAR":-0.00030046304,"MEAN_MOTION_DOT":-1.07e-6,"MEAN_MOTION_DDOT":0},{"OBJECT_NAME":"DELTA 1 DEB","OBJECT_ID":"1973-086EP","EPOCH":"2026-03-09T22:25:39.258624","MEAN_MOTION":13.16908943,"ECCENTRICITY":0.02405736,"INCLINATION":102.0404,"RA_OF_ASC_NODE":68.2966,"ARG_OF_PERICENTER":186.6574,"MEAN_ANOMALY":204.016,"EPHEMERIS_TYPE":0,"CLASSIFICATION_TYPE":"U","NORAD_CAT_ID":7177,"ELEMENT_SET_NO":999,"REV_AT_EPOCH":49192,"BSTAR":0.0019260639,"MEAN_MOTION_DOT":8.03e-6,"MEAN_MOTION_DDOT":0}]
